{"type": "FeatureCollection", "features": [ {"type": "Feature", "properties": {"norad_id": 39620, "name": "COSMOS 2492 (754)", "group": "gnss", "lat": -34.78167821944433, "lon": 158.86133493865657, "alt_km": 19135.782052671253, "timestamp": "2025-12-10T23:33:13.063428+00:00", "meta": {"OBJECT_NAME": "COSMOS 2492 (754)", "OBJECT_ID": "2014-012A", "EPOCH": "2025-12-10T05:26:14.562816", "MEAN_MOTION": 2.13102977, "ECCENTRICITY": 0.00142093, "INCLINATION": 65.4091, "RA_OF_ASC_NODE": 320.3564, "ARG_OF_PERICENTER": 311.2257, "MEAN_ANOMALY": 48.6498, "EPHEMERIS_TYPE": 0, "CLASSIFICATION_TYPE": "U", "NORAD_CAT_ID": 39620, "ELEMENT_SET_NO": 999, "REV_AT_EPOCH": 9121, "BSTAR": 0, "MEAN_MOTION_DOT": -5e-07, "MEAN_MOTION_DDOT": 0}, "tle": {"line1": "1 39620U 14012A   25344.22655744 -.00000050  00000+0  00000+0 0  9995", "line2": "2 39620  65.4091 320.3564 0014209 311.2257  48.6498  2.13102977 91211"}}, "geometry": {"type": "Point", "coordinates": [158.86133493865657, -34.78167821944433]}}, {"type": "Feature", "properties": {"norad_id": 39635, "name": "IRNSS-1B", "group": "gnss", "lat": -25.905393086447106, "lon": 125.52488491025116, "alt_km": 35752.29613162774, "timestamp": "2025-12-10T23:33:13.063438+00:00", "meta": {"OBJECT_NAME": "IRNSS-1B", "OBJECT_ID": "2014-017A", "EPOCH": "2025-12-07T19:02:08.350080", "MEAN_MOTION": 1.00276938, "ECCENTRICITY": 0.00176548, "INCLINATION": 28.8332, "RA_OF_ASC_NODE": 243.6763, "ARG_OF_PERICENTER": 183.0277, "MEAN_ANOMALY": 350.7455, "EPHEMERIS_TYPE": 0, "CLASSIFICATION_TYPE": "U", "NORAD_CAT_ID": 39635, "ELEMENT_SET_NO": 999, "REV_AT_EPOCH": 4287, "BSTAR": 0, "MEAN_MOTION_DOT": 1.18e-06, "MEAN_MOTION_DDOT": 0}, "tle": {"line1": "1 39635U 14017A   25341.79315220  .00000118  00000+0  00000+0 0  9991", "line2": "2 39635  28.8332 243.6763 0017654 183.0277 350.7455  1.00276938 42872"}}, "geometry": {"type": "Point", "coordinates": [125.52488491025116, -25.905393086447106]}}, {"type": "Feature", "properties": {"norad_id": 39727, "name": "LUCH 5V (SDCM/PRN 141)", "group": "gnss", "lat": 4.636707318075536, "lon": 167.98443584915728, "alt_km": 35791.49993733981, "timestamp": "2025-12-10T23:33:13.063451+00:00", "meta": {"OBJECT_NAME": "LUCH 5V (SDCM/PRN 141)", "OBJECT_ID": "2014-023A", "EPOCH": "2025-12-10T14:41:41.137152", "MEAN_MOTION": 1.00269596, "ECCENTRICITY": 0.00046439, "INCLINATION": 4.6643, "RA_OF_ASC_NODE": 71.5518, "ARG_OF_PERICENTER": 202.3921, "MEAN_ANOMALY": 120.8246, "EPHEMERIS_TYPE": 0, "CLASSIFICATION_TYPE": "U", "NORAD_CAT_ID": 39727, "ELEMENT_SET_NO": 999, "REV_AT_EPOCH": 4246, "BSTAR": 0, "MEAN_MOTION_DOT": -2.65e-06, "MEAN_MOTION_DDOT": 0}, "tle": {"line1": "1 39727U 14023A   25344.61228168 -.00000265  00000+0  00000+0 0  9992", "line2": "2 39727   4.6643  71.5518 0004643 202.3921 120.8246  1.00269596 42463"}}, "geometry": {"type": "Point", "coordinates": [167.98443584915728, 4.636707318075536]}}, {"type": "Feature", "properties": {"norad_id": 39741, "name": "GPS BIIF-6  (PRN 06)", "group": "gnss", "lat": -10.099377770572644, "lon": -27.91306857224018, "alt_km": 20093.45166727721, "timestamp": "2025-12-10T23:33:13.063461+00:00", "meta": {"OBJECT_NAME": "GPS BIIF-6  (PRN 06)", "OBJECT_ID": "2014-026A", "EPOCH": "2025-12-10T00:01:18.987744", "MEAN_MOTION": 2.00561492, "ECCENTRICITY": 0.00391139, "INCLINATION": 56.5847, "RA_OF_ASC_NODE": 338.8829, "ARG_OF_PERICENTER": 318.5217, "MEAN_ANOMALY": 41.1927, "EPHEMERIS_TYPE": 0, "CLASSIFICATION_TYPE": "U", "NORAD_CAT_ID": 39741, "ELEMENT_SET_NO": 999, "REV_AT_EPOCH": 8474, "BSTAR": 0, "MEAN_MOTION_DOT": -8.4e-07, "MEAN_MOTION_DDOT": 0}, "tle": {"line1": "1 39741U 14026A   25344.00091421 -.00000084  00000+0  00000+0 0  9993", "line2": "2 39741  56.5847 338.8829 0039113 318.5217  41.1927  2.00561492 84742"}}, "geometry": {"type": "Point", "coordinates": [-27.91306857224018, -10.099377770572644]}}, {"type": "Feature", "properties": {"norad_id": 40001, "name": "COSMOS 2500 (755)", "group": "gnss", "lat": 65.14938613697583, "lon": 42.594264157357365, "alt_km": 19136.897560124868, "timestamp": "2025-12-10T23:33:13.063471+00:00", "meta": {"OBJECT_NAME": "COSMOS 2500 (755)", "OBJECT_ID": "2014-032A", "EPOCH": "2025-12-09T11:02:48.490944", "MEAN_MOTION": 2.13105796, "ECCENTRICITY": 0.000831, "INCLINATION": 65.3451, "RA_OF_ASC_NODE": 320.1442, "ARG_OF_PERICENTER": 219.1348, "MEAN_ANOMALY": 140.802, "EPHEMERIS_TYPE": 0, "CLASSIFICATION_TYPE": "U", "NORAD_CAT_ID": 40001, "ELEMENT_SET_NO": 999, "REV_AT_EPOCH": 8941, "BSTAR": 0, "MEAN_MOTION_DOT": -4.9e-07, "MEAN_MOTION_DDOT": 0}, "tle": {"line1": "1 40001U 14032A   25343.46028346 -.00000049  00000+0  00000+0 0  9997", "line2": "2 40001  65.3451 320.1442 0008310 219.1348 140.8020  2.13105796 89418"}}, "geometry": {"type": "Point", "coordinates": [42.594264157357365, 65.14938613697583]}}, {"type": "Feature", "properties": {"norad_id": 40105, "name": "GPS BIIF-7  (PRN 09)", "group": "gnss", "lat": -52.48517460246686, "lon": 31.284941801490845, "alt_km": 20271.254812394276, "timestamp": "2025-12-10T23:33:13.063482+00:00", "meta": {"OBJECT_NAME": "GPS BIIF-7  (PRN 09)", "OBJECT_ID": "2014-045A", "EPOCH": "2025-12-09T14:09:41.937408", "MEAN_MOTION": 2.00572274, "ECCENTRICITY": 0.0032763, "INCLINATION": 55.2273, "RA_OF_ASC_NODE": 96.0246, "ARG_OF_PERICENTER": 119.7913, "MEAN_ANOMALY": 240.5219, "EPHEMERIS_TYPE": 0, "CLASSIFICATION_TYPE": "U", "NORAD_CAT_ID": 40105, "ELEMENT_SET_NO": 999, "REV_AT_EPOCH": 8227, "BSTAR": 0, "MEAN_MOTION_DOT": 2e-08, "MEAN_MOTION_DDOT": 0}, "tle": {"line1": "1 40105U 14045A   25343.59006872  .00000002  00000+0  00000+0 0  9998", "line2": "2 40105  55.2273  96.0246 0032763 119.7913 240.5219  2.00572274 82276"}}, "geometry": {"type": "Point", "coordinates": [31.284941801490845, -52.48517460246686]}}, {"type": "Feature", "properties": {"norad_id": 40128, "name": "GSAT0201 (GALILEO 5)", "group": "gnss", "lat": 34.27634733195179, "lon": 64.93196873386633, "alt_km": 17794.38633358801, "timestamp": "2025-12-10T23:33:13.063492+00:00", "meta": {"OBJECT_NAME": "GSAT0201 (GALILEO 5)", "OBJECT_ID": "2014-050A", "EPOCH": "2025-12-09T03:42:58.517280", "MEAN_MOTION": 1.8551953, "ECCENTRICITY": 0.16475498, "INCLINATION": 49.0809, "RA_OF_ASC_NODE": 281.2097, "ARG_OF_PERICENTER": 172.1436, "MEAN_ANOMALY": 190.836, "EPHEMERIS_TYPE": 0, "CLASSIFICATION_TYPE": "U", "NORAD_CAT_ID": 40128, "ELEMENT_SET_NO": 999, "REV_AT_EPOCH": 7479, "BSTAR": 0, "MEAN_MOTION_DOT": -7.1e-07, "MEAN_MOTION_DDOT": 0}, "tle": {"line1": "1 40128U 14050A   25343.15484395 -.00000071  00000+0  00000+0 0  9998", "line2": "2 40128  49.0809 281.2097 1647549 172.1436 190.8360  1.85519530 74797"}}, "geometry": {"type": "Point", "coordinates": [64.93196873386633, 34.27634733195179]}}, {"type": "Feature", "properties": {"norad_id": 40129, "name": "GSAT0202 (GALILEO 6)", "group": "gnss", "lat": -16.979538457423757, "lon": -95.12523052948895, "alt_km": 25982.29316923201, "timestamp": "2025-12-10T23:33:13.063502+00:00", "meta": {"OBJECT_NAME": "GSAT0202 (GALILEO 6)", "OBJECT_ID": "2014-050B", "EPOCH": "2025-12-08T20:55:50.636640", "MEAN_MOTION": 1.85520286, "ECCENTRICITY": 0.16482545, "INCLINATION": 49.097, "RA_OF_ASC_NODE": 280.3049, "ARG_OF_PERICENTER": 172.8865, "MEAN_ANOMALY": 189.8198, "EPHEMERIS_TYPE": 0, "CLASSIFICATION_TYPE": "U", "NORAD_CAT_ID": 40129, "ELEMENT_SET_NO": 999, "REV_AT_EPOCH": 7695, "BSTAR": 0, "MEAN_MOTION_DOT": -6.8e-07, "MEAN_MOTION_DDOT": 0}, "tle": {"line1": "1 40129U 14050B   25342.87211385 -.00000068  00000+0  00000+0 0  9990", "line2": "2 40129  49.0970 280.3049 1648254 172.8865 189.8198  1.85520286 76958"}}, "geometry": {"type": "Point", "coordinates": [-95.12523052948895, -16.979538457423757]}}, {"type": "Feature", "properties": {"norad_id": 40269, "name": "IRNSS-1C", "group": "gnss", "lat": 5.41409234009503, "lon": 156.20471708493108, "alt_km": 35750.450477617625, "timestamp": "2025-12-10T23:33:13.063512+00:00", "meta": {"OBJECT_NAME": "IRNSS-1C", "OBJECT_ID": "2014-061A", "EPOCH": "2025-12-10T13:42:40.783968", "MEAN_MOTION": 1.00268077, "ECCENTRICITY": 0.00177418, "INCLINATION": 6.0353, "RA_OF_ASC_NODE": 92.6658, "ARG_OF_PERICENTER": 2.3408, "MEAN_ANOMALY": 273.1091, "EPHEMERIS_TYPE": 0, "CLASSIFICATION_TYPE": "U", "NORAD_CAT_ID": 40269, "ELEMENT_SET_NO": 999, "REV_AT_EPOCH": 4079, "BSTAR": 0, "MEAN_MOTION_DOT": -1.56e-06, "MEAN_MOTION_DDOT": 0}, "tle": {"line1": "1 40269U 14061A   25344.57130537 -.00000156  00000+0  00000+0 0  9993", "line2": "2 40269   6.0353  92.6658 0017741   2.3408 273.1091  1.00268077 40797"}}, "geometry": {"type": "Point", "coordinates": [156.20471708493108, 5.41409234009503]}}, {"type": "Feature", "properties": {"norad_id": 40294, "name": "GPS BIIF-8  (PRN 03)", "group": "gnss", "lat": 10.848264004774498, "lon": 45.416455548929285, "alt_km": 20090.326871319918, "timestamp": "2025-12-10T23:33:13.063522+00:00", "meta": {"OBJECT_NAME": "GPS BIIF-8  (PRN 03)", "OBJECT_ID": "2014-068A", "EPOCH": "2025-12-10T11:09:30.251808", "MEAN_MOTION": 2.00564629, "ECCENTRICITY": 0.00607879, "INCLINATION": 56.8561, "RA_OF_ASC_NODE": 38.234, "ARG_OF_PERICENTER": 69.2281, "MEAN_ANOMALY": 291.4749, "EPHEMERIS_TYPE": 0, "CLASSIFICATION_TYPE": "U", "NORAD_CAT_ID": 40294, "ELEMENT_SET_NO": 999, "REV_AT_EPOCH": 8142, "BSTAR": 0, "MEAN_MOTION_DOT": -8.9e-07, "MEAN_MOTION_DDOT": 0}, "tle": {"line1": "1 40294U 14068A   25344.46493347 -.00000089  00000+0  00000+0 0  9992", "line2": "2 40294  56.8561  38.2340 0060787  69.2281 291.4749  2.00564629 81423"}}, "geometry": {"type": "Point", "coordinates": [45.416455548929285, 10.848264004774498]}}]}